{
  "type": "FeatureCollection",
  "_note": "Schematic non-overlapping 6x3 grid tessellation for portfolio choropleth — each department occupies one cell in rough north-to-south / west-to-east order. Not official GIS boundaries; cells do not overlap so Plotly can render distinct fill colors.",
  "features": [
    {
      "type": "Feature",
      "properties": {"department": "Alto Paraguay"},
      "geometry": {
        "type": "Polygon",
        "coordinates": [[[-62.50, -19.00], [-61.08, -19.00], [-61.08, -21.83], [-62.50, -21.83], [-62.50, -19.00]]]
      }
    },
    {
      "type": "Feature",
      "properties": {"department": "Boqueron"},
      "geometry": {
        "type": "Polygon",
        "coordinates": [[[-61.08, -19.00], [-59.67, -19.00], [-59.67, -21.83], [-61.08, -21.83], [-61.08, -19.00]]]
      }
    },
    {
      "type": "Feature",
      "properties": {"department": "Presidente Hayes"},
      "geometry": {
        "type": "Polygon",
        "coordinates": [[[-59.67, -19.00], [-58.25, -19.00], [-58.25, -21.83], [-59.67, -21.83], [-59.67, -19.00]]]
      }
    },
    {
      "type": "Feature",
      "properties": {"department": "Amambay"},
      "geometry": {
        "type": "Polygon",
        "coordinates": [[[-58.25, -19.00], [-56.83, -19.00], [-56.83, -21.83], [-58.25, -21.83], [-58.25, -19.00]]]
      }
    },
    {
      "type": "Feature",
      "properties": {"department": "Concepcion"},
      "geometry": {
        "type": "Polygon",
        "coordinates": [[[-56.83, -19.00], [-55.42, -19.00], [-55.42, -21.83], [-56.83, -21.83], [-56.83, -19.00]]]
      }
    },
    {
      "type": "Feature",
      "properties": {"department": "Canindeyu"},
      "geometry": {
        "type": "Polygon",
        "coordinates": [[[-55.42, -19.00], [-54.00, -19.00], [-54.00, -21.83], [-55.42, -21.83], [-55.42, -19.00]]]
      }
    },
    {
      "type": "Feature",
      "properties": {"department": "Guaira"},
      "geometry": {
        "type": "Polygon",
        "coordinates": [[[-62.50, -21.83], [-61.08, -21.83], [-61.08, -24.67], [-62.50, -24.67], [-62.50, -21.83]]]
      }
    },
    {
      "type": "Feature",
      "properties": {"department": "San Pedro"},
      "geometry": {
        "type": "Polygon",
        "coordinates": [[[-61.08, -21.83], [-59.67, -21.83], [-59.67, -24.67], [-61.08, -24.67], [-61.08, -21.83]]]
      }
    },
    {
      "type": "Feature",
      "properties": {"department": "Caaguazu"},
      "geometry": {
        "type": "Polygon",
        "coordinates": [[[-59.67, -21.83], [-58.25, -21.83], [-58.25, -24.67], [-59.67, -24.67], [-59.67, -21.83]]]
      }
    },
    {
      "type": "Feature",
      "properties": {"department": "Cordillera"},
      "geometry": {
        "type": "Polygon",
        "coordinates": [[[-58.25, -21.83], [-56.83, -21.83], [-56.83, -24.67], [-58.25, -24.67], [-58.25, -21.83]]]
      }
    },
    {
      "type": "Feature",
      "properties": {"department": "Asuncion"},
      "geometry": {
        "type": "Polygon",
        "coordinates": [[[-56.83, -21.83], [-55.42, -21.83], [-55.42, -24.67], [-56.83, -24.67], [-56.83, -21.83]]]
      }
    },
    {
      "type": "Feature",
      "properties": {"department": "Central"},
      "geometry": {
        "type": "Polygon",
        "coordinates": [[[-55.42, -21.83], [-54.00, -21.83], [-54.00, -24.67], [-55.42, -24.67], [-55.42, -21.83]]]
      }
    },
    {
      "type": "Feature",
      "properties": {"department": "Neembucu"},
      "geometry": {
        "type": "Polygon",
        "coordinates": [[[-62.50, -24.67], [-61.08, -24.67], [-61.08, -27.50], [-62.50, -27.50], [-62.50, -24.67]]]
      }
    },
    {
      "type": "Feature",
      "properties": {"department": "Caazapa"},
      "geometry": {
        "type": "Polygon",
        "coordinates": [[[-61.08, -24.67], [-59.67, -24.67], [-59.67, -27.50], [-61.08, -27.50], [-61.08, -24.67]]]
      }
    },
    {
      "type": "Feature",
      "properties": {"department": "Paraguari"},
      "geometry": {
        "type": "Polygon",
        "coordinates": [[[-59.67, -24.67], [-58.25, -24.67], [-58.25, -27.50], [-59.67, -27.50], [-59.67, -24.67]]]
      }
    },
    {
      "type": "Feature",
      "properties": {"department": "Itapua"},
      "geometry": {
        "type": "Polygon",
        "coordinates": [[[-58.25, -24.67], [-56.83, -24.67], [-56.83, -27.50], [-58.25, -27.50], [-58.25, -24.67]]]
      }
    },
    {
      "type": "Feature",
      "properties": {"department": "Misiones"},
      "geometry": {
        "type": "Polygon",
        "coordinates": [[[-56.83, -24.67], [-55.42, -24.67], [-55.42, -27.50], [-56.83, -27.50], [-56.83, -24.67]]]
      }
    },
    {
      "type": "Feature",
      "properties": {"department": "Alto Parana"},
      "geometry": {
        "type": "Polygon",
        "coordinates": [[[-55.42, -24.67], [-54.00, -24.67], [-54.00, -27.50], [-55.42, -27.50], [-55.42, -24.67]]]
      }
    }
  ]
}
