{"type": "FeatureCollection", "features": [{"type": "Feature", "properties": {"department": "Asuncion", "win_probability_a": 0.9999999999797734, "calibration_series": "A"}, "geometry": null}, {"type": "Feature", "properties": {"department": "Concepcion", "win_probability_a": 0.12395102333577046, "calibration_series": "A"}, "geometry": null}, {"type": "Feature", "properties": {"department": "San Pedro", "win_probability_a": 0.5803881279344179, "calibration_series": "A"}, "geometry": null}, {"type": "Feature", "properties": {"department": "Cordillera", "win_probability_a": 0.40795187822602164, "calibration_series": "A"}, "geometry": null}, {"type": "Feature", "properties": {"department": "Guaira", "win_probability_a": 0.979952534222362, "calibration_series": "A"}, "geometry": null}, {"type": "Feature", "properties": {"department": "Caaguazu", "win_probability_a": 0.5253279116806212, "calibration_series": "A"}, "geometry": null}, {"type": "Feature", "properties": {"department": "Caazapa", "win_probability_a": 0.9999601355719392, "calibration_series": "A"}, "geometry": null}, {"type": "Feature", "properties": {"department": "Itapua", "win_probability_a": 0.6855880843977227, "calibration_series": "A"}, "geometry": null}, {"type": "Feature", "properties": {"department": "Misiones", "win_probability_a": 0.9934736651935655, "calibration_series": "A"}, "geometry": null}, {"type": "Feature", "properties": {"department": "Paraguari", "win_probability_a": 0.9996301109874854, "calibration_series": "A"}, "geometry": null}, {"type": "Feature", "properties": {"department": "Alto Parana", "win_probability_a": 0.2498235248541419, "calibration_series": "A"}, "geometry": null}, {"type": "Feature", "properties": {"department": "Central", "win_probability_a": 0.23155814875398129, "calibration_series": "A"}, "geometry": null}, {"type": "Feature", "properties": {"department": "Neembucu", "win_probability_a": 0.9999986679163273, "calibration_series": "A"}, "geometry": null}, {"type": "Feature", "properties": {"department": "Amambay", "win_probability_a": 0.9362076867597471, "calibration_series": "A"}, "geometry": null}, {"type": "Feature", "properties": {"department": "Canindeyu", "win_probability_a": 0.9581141044518724, "calibration_series": "A"}, "geometry": null}, {"type": "Feature", "properties": {"department": "Presidente Hayes", "win_probability_a": 0.9960281945715643, "calibration_series": "A"}, "geometry": null}, {"type": "Feature", "properties": {"department": "Boqueron", "win_probability_a": 1.0, "calibration_series": "A"}, "geometry": null}, {"type": "Feature", "properties": {"department": "Alto Paraguay", "win_probability_a": 0.99999999885901, "calibration_series": "A"}, "geometry": null}]}