{"type": "FeatureCollection", "features": [{"type": "Feature", "properties": {"department": "Asuncion", "win_probability_a": 0.999932971885171, "calibration_series": "A"}, "geometry": null}, {"type": "Feature", "properties": {"department": "Concepcion", "win_probability_a": 0.3295316904373353, "calibration_series": "A"}, "geometry": null}, {"type": "Feature", "properties": {"department": "San Pedro", "win_probability_a": 0.5308756478312572, "calibration_series": "A"}, "geometry": null}, {"type": "Feature", "properties": {"department": "Cordillera", "win_probability_a": 0.46913648542875636, "calibration_series": "A"}, "geometry": null}, {"type": "Feature", "properties": {"department": "Guaira", "win_probability_a": 0.8474616572450762, "calibration_series": "A"}, "geometry": null}, {"type": "Feature", "properties": {"department": "Caaguazu", "win_probability_a": 0.514656421895738, "calibration_series": "A"}, "geometry": null}, {"type": "Feature", "properties": {"department": "Caazapa", "win_probability_a": 0.9623766323080142, "calibration_series": "A"}, "geometry": null}, {"type": "Feature", "properties": {"department": "Itapua", "win_probability_a": 0.57321973271394, "calibration_series": "A"}, "geometry": null}, {"type": "Feature", "properties": {"department": "Misiones", "win_probability_a": 0.8284008864948234, "calibration_series": "A"}, "geometry": null}, {"type": "Feature", "properties": {"department": "Paraguari", "win_probability_a": 0.8947173374236655, "calibration_series": "A"}, "geometry": null}, {"type": "Feature", "properties": {"department": "Alto Parana", "win_probability_a": 0.3982950524682646, "calibration_series": "A"}, "geometry": null}, {"type": "Feature", "properties": {"department": "Central", "win_probability_a": 0.3896738247797862, "calibration_series": "A"}, "geometry": null}, {"type": "Feature", "properties": {"department": "Neembucu", "win_probability_a": 0.9634989777768732, "calibration_series": "A"}, "geometry": null}, {"type": "Feature", "properties": {"department": "Amambay", "win_probability_a": 0.7196546071740637, "calibration_series": "A"}, "geometry": null}, {"type": "Feature", "properties": {"department": "Canindeyu", "win_probability_a": 0.7454660004928005, "calibration_series": "A"}, "geometry": null}, {"type": "Feature", "properties": {"department": "Presidente Hayes", "win_probability_a": 0.9376521798430751, "calibration_series": "A"}, "geometry": null}, {"type": "Feature", "properties": {"department": "Boqueron", "win_probability_a": 0.9999999999950555, "calibration_series": "A"}, "geometry": null}, {"type": "Feature", "properties": {"department": "Alto Paraguay", "win_probability_a": 0.9997266502852519, "calibration_series": "A"}, "geometry": null}]}